SHIJIAN-28 (SJ-28)      
1 66549U 25277A   25362.06417316 -.00000335  00000+0  00000+0 0  9999
2 66549   4.9806 274.7168 0000530 162.1132 159.8091  1.00273974   431
CZ-7A R/B               
1 66550U 25277B   25360.17323146  .04976202 -21169-6  31720-2 0  9999
2 66550  14.3386 261.8830 6428177 204.1589 102.8537  3.54037207   761
USA 568                 
1 66551U 24134K   25336.66670139 -.01709685  00000+0 -74303-2 0  9990
2 66551  53.1571 236.7807 0000717 110.7411 313.9012 15.87051116  2624
GLOBAL-33               
1 66554U 25267A   25361.92211879  .00017630  00000+0  56764-3 0  9991
2 66554  42.0213 329.3377 0005299 196.3023 163.7644 15.31848084  5731
STARLINK-35699          
1 66557U 25268A   25362.16668980  .00014712  00000+0  54352-3 0  9990
2 66557  43.0008  31.4152 0001318 269.2945 188.0692 15.27552078  6048
STARLINK-35695          
1 66558U 25268B   25362.16668980  .00024681  00000+0  90440-3 0  9995
2 66558  43.0008  31.3649 0001589 270.3321 208.2596 15.27543196  6094
STARLINK-35419          
1 66559U 25268C   25362.16668980 -.02091745  00000+0 -71747-1 0  9992
2 66559  43.0014  31.1012 0000772 283.7449 304.1866 15.32819700  6039
STARLINK-35411          
1 66560U 25268D   25362.16668980 -.02078471  00000+0 -70067-1 0  9999
2 66560  43.0007  31.0721 0000822 288.6620 311.0975 15.33342082  6033
STARLINK-35305          
1 66561U 25268E   25362.16668980 -.01987290  00000+0 -64391-1 0  9990
2 66561  43.0004  30.9916 0000839 271.8274   1.5492 15.35001120  6034
STARLINK-35579          
1 66562U 25268F   25362.16668980 -.02052300  00000+0 -67276-1 0  9992
2 66562  43.0002  31.0315 0000841 278.0120 338.8342 15.34174895  6095
STARLINK-35437          
1 66563U 25268G   25362.16668980 -.02003738  00000+0 -63237-1 0  9997
2 66563  43.0001  30.9529 0000923 265.3458  23.9987 15.35845592  6046
STARLINK-35358          
1 66564U 25268H   25362.16668980 -.02107151  00000+0 -63817-1 0  9996
2 66564  42.9999  30.9160 0001116 253.3865  51.3847 15.36709422  5980
