CCSDS_OMM_VERS = 2.0
CREATION_DATE  = 
ORIGINATOR     = 

OBJECT_NAME    = SHIJIAN-28 (SJ-28)
OBJECT_ID      = 2025-277A
CENTER_NAME    = EARTH
REF_FRAME      = TEME
TIME_SYSTEM    = UTC
MEAN_ELEMENT_THEORY = SGP/SGP4

EPOCH          = 2025-12-28T01:32:24.561024
MEAN_MOTION    = 1.00273974
ECCENTRICITY   = .000053
INCLINATION    = 4.9806
RA_OF_ASC_NODE = 274.7168
ARG_OF_PERICENTER = 162.1132
MEAN_ANOMALY   = 159.8091

EPHEMERIS_TYPE = 0
CLASSIFICATION_TYPE = U
NORAD_CAT_ID   = 66549
ELEMENT_SET_NO = 999
REV_AT_EPOCH   = 43
BSTAR          = 0
MEAN_MOTION_DOT = -.335E-5
MEAN_MOTION_DDOT = 0

CCSDS_OMM_VERS = 2.0
CREATION_DATE  = 
ORIGINATOR     = 

OBJECT_NAME    = CZ-7A R/B
OBJECT_ID      = 2025-277B
CENTER_NAME    = EARTH
REF_FRAME      = TEME
TIME_SYSTEM    = UTC
MEAN_ELEMENT_THEORY = SGP/SGP4

EPOCH          = 2025-12-26T04:09:27.198144
MEAN_MOTION    = 3.54037207
ECCENTRICITY   = .6428177
INCLINATION    = 14.3386
RA_OF_ASC_NODE = 261.8830
ARG_OF_PERICENTER = 204.1589
MEAN_ANOMALY   = 102.8537

EPHEMERIS_TYPE = 0
CLASSIFICATION_TYPE = U
NORAD_CAT_ID   = 66550
ELEMENT_SET_NO = 999
REV_AT_EPOCH   = 76
BSTAR          = .3172E-2
MEAN_MOTION_DOT = .4976202E-1
MEAN_MOTION_DDOT = -.21169E-6

CCSDS_OMM_VERS = 2.0
CREATION_DATE  = 
ORIGINATOR     = 

OBJECT_NAME    = USA 568
OBJECT_ID      = 2024-134K
CENTER_NAME    = EARTH
REF_FRAME      = TEME
TIME_SYSTEM    = UTC
MEAN_ELEMENT_THEORY = SGP/SGP4

EPOCH          = 2025-12-02T16:00:03.000096
MEAN_MOTION    = 15.87051116
ECCENTRICITY   = .0000717
INCLINATION    = 53.1571
RA_OF_ASC_NODE = 236.7807
ARG_OF_PERICENTER = 110.7411
MEAN_ANOMALY   = 313.9012

EPHEMERIS_TYPE = 0
CLASSIFICATION_TYPE = U
NORAD_CAT_ID   = 66551
ELEMENT_SET_NO = 999
REV_AT_EPOCH   = 262
BSTAR          = -.74303E-2
MEAN_MOTION_DOT = -.1709685E-1
MEAN_MOTION_DDOT = 0

CCSDS_OMM_VERS = 2.0
CREATION_DATE  = 
ORIGINATOR     = 

OBJECT_NAME    = GLOBAL-33
OBJECT_ID      = 2025-267A
CENTER_NAME    = EARTH
REF_FRAME      = TEME
TIME_SYSTEM    = UTC
MEAN_ELEMENT_THEORY = SGP/SGP4

EPOCH          = 2025-12-27T22:07:51.063456
MEAN_MOTION    = 15.31848084
ECCENTRICITY   = .00052992
INCLINATION    = 42.0213
RA_OF_ASC_NODE = 329.3377
ARG_OF_PERICENTER = 196.3023
MEAN_ANOMALY   = 163.7644

EPHEMERIS_TYPE = 0
CLASSIFICATION_TYPE = U
NORAD_CAT_ID   = 66554
ELEMENT_SET_NO = 999
REV_AT_EPOCH   = 573
BSTAR          = .56763965E-3
MEAN_MOTION_DOT = .1763E-3
MEAN_MOTION_DDOT = 0

CCSDS_OMM_VERS = 2.0
CREATION_DATE  = 
ORIGINATOR     = 

OBJECT_NAME    = STARLINK-35699
OBJECT_ID      = 2025-268A
CENTER_NAME    = EARTH
REF_FRAME      = TEME
TIME_SYSTEM    = UTC
MEAN_ELEMENT_THEORY = SGP/SGP4

EPOCH          = 2025-12-28T04:00:01.998720
MEAN_MOTION    = 15.27552078
ECCENTRICITY   = .0001318
INCLINATION    = 43.0008
RA_OF_ASC_NODE = 31.4152
ARG_OF_PERICENTER = 269.2945
MEAN_ANOMALY   = 188.0692

EPHEMERIS_TYPE = 0
CLASSIFICATION_TYPE = U
NORAD_CAT_ID   = 66557
ELEMENT_SET_NO = 999
REV_AT_EPOCH   = 604
BSTAR          = .54352E-3
MEAN_MOTION_DOT = .14712E-3
MEAN_MOTION_DDOT = 0

CCSDS_OMM_VERS = 2.0
CREATION_DATE  = 
ORIGINATOR     = 

OBJECT_NAME    = STARLINK-35695
OBJECT_ID      = 2025-268B
CENTER_NAME    = EARTH
REF_FRAME      = TEME
TIME_SYSTEM    = UTC
MEAN_ELEMENT_THEORY = SGP/SGP4

EPOCH          = 2025-12-28T04:00:01.998720
MEAN_MOTION    = 15.27543196
ECCENTRICITY   = .0001589
INCLINATION    = 43.0008
RA_OF_ASC_NODE = 31.3649
ARG_OF_PERICENTER = 270.3321
MEAN_ANOMALY   = 208.2596

EPHEMERIS_TYPE = 0
CLASSIFICATION_TYPE = U
NORAD_CAT_ID   = 66558
ELEMENT_SET_NO = 999
REV_AT_EPOCH   = 609
BSTAR          = .9044E-3
MEAN_MOTION_DOT = .24681E-3
MEAN_MOTION_DDOT = 0

CCSDS_OMM_VERS = 2.0
CREATION_DATE  = 
ORIGINATOR     = 

OBJECT_NAME    = STARLINK-35419
OBJECT_ID      = 2025-268C
CENTER_NAME    = EARTH
REF_FRAME      = TEME
TIME_SYSTEM    = UTC
MEAN_ELEMENT_THEORY = SGP/SGP4

EPOCH          = 2025-12-28T04:00:01.998720
MEAN_MOTION    = 15.32819700
ECCENTRICITY   = .0000772
INCLINATION    = 43.0014
RA_OF_ASC_NODE = 31.1012
ARG_OF_PERICENTER = 283.7449
MEAN_ANOMALY   = 304.1866

EPHEMERIS_TYPE = 0
CLASSIFICATION_TYPE = U
NORAD_CAT_ID   = 66559
ELEMENT_SET_NO = 999
REV_AT_EPOCH   = 603
BSTAR          = -.71747E-1
MEAN_MOTION_DOT = -.2091745E-1
MEAN_MOTION_DDOT = 0

CCSDS_OMM_VERS = 2.0
CREATION_DATE  = 
ORIGINATOR     = 

OBJECT_NAME    = STARLINK-35411
OBJECT_ID      = 2025-268D
CENTER_NAME    = EARTH
REF_FRAME      = TEME
TIME_SYSTEM    = UTC
MEAN_ELEMENT_THEORY = SGP/SGP4

EPOCH          = 2025-12-28T04:00:01.998720
MEAN_MOTION    = 15.33342082
ECCENTRICITY   = .0000822
INCLINATION    = 43.0007
RA_OF_ASC_NODE = 31.0721
ARG_OF_PERICENTER = 288.6620
MEAN_ANOMALY   = 311.0975

EPHEMERIS_TYPE = 0
CLASSIFICATION_TYPE = U
NORAD_CAT_ID   = 66560
ELEMENT_SET_NO = 999
REV_AT_EPOCH   = 603
BSTAR          = -.70067E-1
MEAN_MOTION_DOT = -.2078471E-1
MEAN_MOTION_DDOT = 0

CCSDS_OMM_VERS = 2.0
CREATION_DATE  = 
ORIGINATOR     = 

OBJECT_NAME    = STARLINK-35305
OBJECT_ID      = 2025-268E
CENTER_NAME    = EARTH
REF_FRAME      = TEME
TIME_SYSTEM    = UTC
MEAN_ELEMENT_THEORY = SGP/SGP4

EPOCH          = 2025-12-28T04:00:01.998720
MEAN_MOTION    = 15.35001120
ECCENTRICITY   = .0000839
INCLINATION    = 43.0004
RA_OF_ASC_NODE = 30.9916
ARG_OF_PERICENTER = 271.8274
MEAN_ANOMALY   = 1.5492

EPHEMERIS_TYPE = 0
CLASSIFICATION_TYPE = U
NORAD_CAT_ID   = 66561
ELEMENT_SET_NO = 999
REV_AT_EPOCH   = 603
BSTAR          = -.64391E-1
MEAN_MOTION_DOT = -.198729E-1
MEAN_MOTION_DDOT = 0

CCSDS_OMM_VERS = 2.0
CREATION_DATE  = 
ORIGINATOR     = 

OBJECT_NAME    = STARLINK-35579
OBJECT_ID      = 2025-268F
CENTER_NAME    = EARTH
REF_FRAME      = TEME
TIME_SYSTEM    = UTC
MEAN_ELEMENT_THEORY = SGP/SGP4

EPOCH          = 2025-12-28T04:00:01.998720
MEAN_MOTION    = 15.34174895
ECCENTRICITY   = .0000841
INCLINATION    = 43.0002
RA_OF_ASC_NODE = 31.0315
ARG_OF_PERICENTER = 278.0120
MEAN_ANOMALY   = 338.8342

EPHEMERIS_TYPE = 0
CLASSIFICATION_TYPE = U
NORAD_CAT_ID   = 66562
ELEMENT_SET_NO = 999
REV_AT_EPOCH   = 609
BSTAR          = -.67276E-1
MEAN_MOTION_DOT = -.20523E-1
MEAN_MOTION_DDOT = 0

CCSDS_OMM_VERS = 2.0
CREATION_DATE  = 
ORIGINATOR     = 

OBJECT_NAME    = STARLINK-35437
OBJECT_ID      = 2025-268G
CENTER_NAME    = EARTH
REF_FRAME      = TEME
TIME_SYSTEM    = UTC
MEAN_ELEMENT_THEORY = SGP/SGP4

EPOCH          = 2025-12-28T04:00:01.998720
MEAN_MOTION    = 15.35845592
ECCENTRICITY   = .0000923
INCLINATION    = 43.0001
RA_OF_ASC_NODE = 30.9529
ARG_OF_PERICENTER = 265.3458
MEAN_ANOMALY   = 23.9987

EPHEMERIS_TYPE = 0
CLASSIFICATION_TYPE = U
NORAD_CAT_ID   = 66563
ELEMENT_SET_NO = 999
REV_AT_EPOCH   = 604
BSTAR          = -.63237E-1
MEAN_MOTION_DOT = -.2003738E-1
MEAN_MOTION_DDOT = 0

CCSDS_OMM_VERS = 2.0
CREATION_DATE  = 
ORIGINATOR     = 

OBJECT_NAME    = STARLINK-35358
OBJECT_ID      = 2025-268H
CENTER_NAME    = EARTH
REF_FRAME      = TEME
TIME_SYSTEM    = UTC
MEAN_ELEMENT_THEORY = SGP/SGP4

EPOCH          = 2025-12-28T04:00:01.998720
MEAN_MOTION    = 15.36709422
ECCENTRICITY   = .0001116
INCLINATION    = 42.9999
RA_OF_ASC_NODE = 30.9160
ARG_OF_PERICENTER = 253.3865
MEAN_ANOMALY   = 51.3847

EPHEMERIS_TYPE = 0
CLASSIFICATION_TYPE = U
NORAD_CAT_ID   = 66564
ELEMENT_SET_NO = 999
REV_AT_EPOCH   = 598
BSTAR          = -.63817E-1
MEAN_MOTION_DOT = -.2107151E-1
MEAN_MOTION_DDOT = 0

